DECODE 2-LINE ELSETS WITH THE FOLLOWING KEY:
1 AAAAAU 00  0  0 BBBBB.BBBBBBBB  .CCCCCCCC  00000-0  00000-0 0  DDDZ
2 AAAAA EEE.EEEE FFF.FFFF GGGGGGG HHH.HHHH III.IIII JJ.JJJJJJJJKKKKKZ
KEY: A-CATALOGNUM B-EPOCHTIME C-DECAY D-ELSETNUM E-INCLINATION F-RAAN
G-ECCENTRICITY H-ARGPERIGEE I-MNANOM J-MNMOTION K-ORBITNUM Z-CHECKSUM

TO ALL RADIO AMATEURS BT

AO-07
1 07530U 74089B   15064.17608950 -.00000042  00000-0  97889-5 0  9998
2 07530 101.5092 042.7459 0012114 144.2599 281.9296 12.53612293844220
FO-29
1 24278U 96046B   15063.53456291  .00000013  00000-0  50542-4 0  9992
2 24278 098.5286 046.5378 0350177 342.3688 163.0740 13.53045745915871
SO-33
1 25509U 98061B   15063.57099449  .00001134  00000-0  20835-3 0  9997
2 25509 031.4333 124.6824 0348395 236.2260 120.4715 14.29876199854430
RS-22
1 27939U 03042A   15064.80699779  .00001471  00000-0  27746-3 0  9992
2 27939 097.8310 231.3808 0012999 002.8296 357.2984 14.65842031611046
HO-68
1 36122U 09072B   15064.57138388 -.00000060  00000-0 -43517-4 0  9993
2 36122 100.2111 113.0130 0007500 002.5066 357.6083 13.16324289250820
AO-73
1 39444U 13066AE  15063.63989653  .00003355  00000-0  43870-3 0  9995
2 39444 097.7431 130.2045 0061753 116.1199 244.6384 14.79741751 67956
EO-79
1 40025U 14033R   15064.65081843  .00002722  00000-0  31245-3 0  9994
2 40025 097.9639 324.7442 0013319 156.3076 203.8766 14.86641786 38416
UO-11
1 14781U 84021B   15063.47113147  .00001275  00000-0  16634-3 0  9997
2 14781 097.8156 123.0717 0009784 058.4308 301.7859 14.82198595666515
AO-16
1 20439U 90005D   15063.44096635  .00000252  00000-0  10881-3 0  9994
2 20439 098.5332 001.2211 0011936 108.0900 320.0740 14.32498288311746
LO-19
1 20442U 90005G   15063.37772820  .00000248  00000-0  10687-3 0  9996
2 20442 098.5043 001.0318 0012967 097.6640 262.6017 14.32693573311937
AO-27
1 22825U 93061C   15063.46571461  .00000216  00000-0  10150-3 0  9996
2 22825 098.6971 013.6170 0007332 254.0335 245.8166 14.29842557117970
IO-26
1 22826U 93061D   15064.42769278  .00000227  00000-0  10494-3 0  9992
2 22826 098.6915 014.7584 0007894 241.8802 118.1583 14.30155808118251
GO-32
1 25397U 98043D   15064.37833661  .00000115  00000-0  69097-4 0  9995
2 25397 098.5078 018.1434 0000121 297.9591 214.9851 14.23522093865024
NO-44
1 26931U 01043C   15063.54151942  .00000223  00000-0  11772-3 0  9993
2 26931 067.0502 087.0201 0006698 264.0640 095.9698 14.30266795700839
SO-50
1 27607U 02058C   15063.66714119  .00001390  00000-0  22005-3 0  9992
2 27607 064.5556 157.8904 0075452 308.9637 050.4757 14.74494408655872
CO-55
1 27844U 03031E   15064.48300694  .00000448  00000-0  22372-3 0  9997
2 27844 098.6977 074.4853 0008773 236.8645 286.9502 14.21728413605706
CO-57
1 27848U 03031J   15064.47794405  .00000369  00000-0  18918-3 0  9990
2 27848 098.7073 074.3333 0008612 244.9014 282.4159 14.21385551605613
