Satellite: AO-07
Catalog number: 07530
Epoch time:      15064.17608950
Element set:     999
Inclination:      101.5092 deg
RA of node:       042.7459 deg
Eccentricity:    0.0012114
Arg of perigee:   144.2599 deg
Mean anomaly:     281.9296 deg
Mean motion:   12.53612293 rev/day
Decay rate:       -4.2e-07 rev/day^2
Epoch rev:           84422
Checksum:              302

Satellite: FO-29
Catalog number: 24278
Epoch time:      15063.53456291
Element set:     999
Inclination:      098.5286 deg
RA of node:       046.5378 deg
Eccentricity:    0.0350177
Arg of perigee:   342.3688 deg
Mean anomaly:     163.0740 deg
Mean motion:   13.53045745 rev/day
Decay rate:        1.3e-07 rev/day^2
Epoch rev:           91587
Checksum:              342

Satellite: SO-33
Catalog number: 25509
Epoch time:      15063.57099449
Element set:     999
Inclination:      031.4333 deg
RA of node:       124.6824 deg
Eccentricity:    0.0348395
Arg of perigee:   236.2260 deg
Mean anomaly:     120.4715 deg
Mean motion:   14.29876199 rev/day
Decay rate:      1.134e-05 rev/day^2
Epoch rev:           85443
Checksum:              331

Satellite: RS-22
Catalog number: 27939
Epoch time:      15064.80699779
Element set:     999
Inclination:      097.8310 deg
RA of node:       231.3808 deg
Eccentricity:    0.0012999
Arg of perigee:   002.8296 deg
Mean anomaly:     357.2984 deg
Mean motion:   14.65842031 rev/day
Decay rate:      1.471e-05 rev/day^2
Epoch rev:           61104
Checksum:              348

Satellite: HO-68
Catalog number: 36122
Epoch time:      15064.57138388
Element set:     999
Inclination:      100.2111 deg
RA of node:       113.0130 deg
Eccentricity:    0.0007500
Arg of perigee:   002.5066 deg
Mean anomaly:     357.6083 deg
Mean motion:   13.16324289 rev/day
Decay rate:       -6.0e-07 rev/day^2
Epoch rev:           25082
Checksum:              266

Satellite: AO-73
Catalog number: 39444
Epoch time:      15063.63989653
Element set:     999
Inclination:      097.7431 deg
RA of node:       130.2045 deg
Eccentricity:    0.0061753
Arg of perigee:   116.1199 deg
Mean anomaly:     244.6384 deg
Mean motion:   14.79741751 rev/day
Decay rate:      3.355e-05 rev/day^2
Epoch rev:            6795
Checksum:              350

Satellite: EO-79
Catalog number: 40025
Epoch time:      15064.65081843
Element set:     999
Inclination:      097.9639 deg
RA of node:       324.7442 deg
Eccentricity:    0.0013319
Arg of perigee:   156.3076 deg
Mean anomaly:     203.8766 deg
Mean motion:   14.86641786 rev/day
Decay rate:      2.722e-05 rev/day^2
Epoch rev:            3841
Checksum:              340

/EX
SB KEPS @ AMSAT  $ORB15064.D
Orbital Elements  15064.MICROS

HR AMSAT ORBITAL ELEMENTS FOR THE MICROSATS
FROM WA5QGD FORT WORTH,TX March 5, 2015
BID: ORB15064.D
TO ALL RADIO AMATEURS BT

Satellite: UO-11
Catalog number: 14781
Epoch time:      15063.47113147
Element set:     999
Inclination:      097.8156 deg
RA of node:       123.0717 deg
Eccentricity:    0.0009784
Arg of perigee:   058.4308 deg
Mean anomaly:     301.7859 deg
Mean motion:   14.82198595 rev/day
Decay rate:      1.275e-05 rev/day^2
Epoch rev:           66651
Checksum:              339

Satellite: AO-16
Catalog number: 20439
Epoch time:      15063.44096635
Element set:     999
Inclination:      098.5332 deg
RA of node:       001.2211 deg
Eccentricity:    0.0011936
Arg of perigee:   108.0900 deg
Mean anomaly:     320.0740 deg
Mean motion:   14.32498288 rev/day
Decay rate:       2.52e-06 rev/day^2
Epoch rev:           31174
Checksum:              279

Satellite: LO-19
Catalog number: 20442
Epoch time:      15063.37772820
Element set:     999
Inclination:      098.5043 deg
RA of node:       001.0318 deg
Eccentricity:    0.0012967
Arg of perigee:   097.6640 deg
Mean anomaly:     262.6017 deg
Mean motion:   14.32693573 rev/day
Decay rate:       2.48e-06 rev/day^2
Epoch rev:           31193
Checksum:              307

Satellite: AO-27
Catalog number: 22825
Epoch time:      15063.46571461
Element set:     999
Inclination:      098.6971 deg
RA of node:       013.6170 deg
Eccentricity:    0.0007332
Arg of perigee:   254.0335 deg
Mean anomaly:     245.8166 deg
Mean motion:   14.29842557 rev/day
Decay rate:       2.16e-06 rev/day^2
Epoch rev:           11797
Checksum:              322

Satellite: IO-26
Catalog number: 22826
Epoch time:      15064.42769278
Element set:     999
Inclination:      098.6915 deg
RA of node:       014.7584 deg
Eccentricity:    0.0007894
Arg of perigee:   241.8802 deg
Mean anomaly:     118.1583 deg
Mean motion:   14.30155808 rev/day
Decay rate:       2.27e-06 rev/day^2
Epoch rev:           11825
Checksum:              336

Satellite: GO-32
Catalog number: 25397
Epoch time:      15064.37833661
Element set:     999
Inclination:      098.5078 deg
RA of node:       018.1434 deg
Eccentricity:    0.0000121
Arg of perigee:   297.9591 deg
Mean anomaly:     214.9851 deg
Mean motion:   14.23522093 rev/day
Decay rate:       1.15e-06 rev/day^2
Epoch rev:           86502
Checksum:              314

Satellite: NO-44
Catalog number: 26931
Epoch time:      15063.54151942
Element set:     999
Inclination:      067.0502 deg
RA of node:       087.0201 deg
Eccentricity:    0.0006698
Arg of perigee:   264.0640 deg
Mean anomaly:     095.9698 deg
Mean motion:   14.30266795 rev/day
Decay rate:       2.23e-06 rev/day^2
Epoch rev:           70083
Checksum:              315

Satellite: SO-50
Catalog number: 27607
Epoch time:      15063.66714119
Element set:     999
Inclination:      064.5556 deg
RA of node:       157.8904 deg
Eccentricity:    0.0075452
Arg of perigee:   308.9637 deg
Mean anomaly:     050.4757 deg
Mean motion:   14.74494408 rev/day
Decay rate:      1.390e-05 rev/day^2
Epoch rev:           65587
Checksum:              354

Satellite: CO-55
Catalog number: 27844
Epoch time:      15064.48300694
Element set:     999
Inclination:      098.6977 deg
RA of node:       074.4853 deg
Eccentricity:    0.0008773
Arg of perigee:   236.8645 deg
Mean anomaly:     286.9502 deg
Mean motion:   14.21728413 rev/day
Decay rate:       4.48e-06 rev/day^2
Epoch rev:           60570
Checksum:              357

Satellite: CO-57
Catalog number: 27848
Epoch time:      15064.47794405
Element set:     999
Inclination:      098.7073 deg
RA of node:       074.3333 deg
Eccentricity:    0.0008612
Arg of perigee:   244.9014 deg
Mean anomaly:     282.4159 deg
Mean motion:   14.21385551 rev/day
Decay rate:       3.69e-06 rev/day^2
Epoch rev:           60561
Checksum:              334

